ORBCOMM FM33            
1 25983U 99065D   25122.57999325  .00001781  00000+0  60584-3 0  9999
2 25983  45.0273 215.7748 0009925 200.3892 159.6562 14.39905251329493
ORBCOMM FM36            
1 25984U 99065E   25122.55463736  .00002224  00000+0  77476-3 0  9991
2 25984  45.0392 307.1306 0003216  85.6291 274.4926 14.38009514327850
ORBCOMM FM35            
1 25985U 99065F   25122.01518971  .00001711  00000+0  61929-3 0  9991
2 25985  45.0395 314.3568 0004062 162.6201 197.4787 14.36995760328148
ORBCOMM FM34            
1 25986U 99065G   25122.26018945  .00001754  00000+0  63344-3 0  9995
2 25986  45.0398 313.6788 0004248 116.4489 243.6795 14.37030271328296
ORBCOMM FM38            
1 33060U 08031A   25122.54414747  .00002897  00000+0  39582-3 0  9997
2 33060  48.4383 172.7367 0005250 211.3695 148.6908 14.81142239907980
ORBCOMM FM41            
1 33061U 08031B   25122.90396256  .00002713  00000+0  37599-3 0  9995
2 33061  48.4419 178.6457 0004313 199.5891 330.7671 14.80735562907965
ORBCOMM FM29            
1 33062U 08031C   25122.89140573  .00003283  00000+0  44808-3 0  9997
2 33062  48.4370 186.5693 0006033 195.9459 335.0398 14.80832194907821
ORBCOMM FM39            
1 33063U 08031D   25122.57602069  .00002880  00000+0  40981-3 0  9996
2 33063  48.4392 211.8475 0006665 165.4960 194.6147 14.79409386907042
